start=new Date('2021-12-04T00:00:00.000Z').valueOf();
sats=[{"TIME_SYSTEM":"UTC","PERIOD":"95.593","MEAN_ELEMENT_THEORY":"SGP4","GP_ID":"191039070","TLE_LINE2":"2 47992  53.0571  45.2354 0001489  54.3115 133.3620 15.06383650  3590","COUNTRY_CODE":"US","EPHEMERIS_TYPE":"0","OBJECT_NAME":"STARLINK-2229","OBJECT_TYPE":"PAYLOAD","INCLINATION":"53.0571","SEMIMAJOR_AXIS":"6925.399","REF_FRAME":"TEME","MEAN_MOTION_DDOT":"0.0000000000000","MEAN_ANOMALY":"133.3620","NORAD_CAT_ID":"47992","SITE":"AFETR","OBJECT_ID":"2021-024R","CENTER_NAME":"EARTH","ELEMENT_SET_NO":"999","TLE_LINE1":"1 47992U 21024R   21337.91667824 -.00016135  00000-0 -10672-2 0  9995","REV_AT_EPOCH":"359","DECAY_DATE":null,"RA_OF_ASC_NODE":"45.2354","EPOCH":"2021-12-03T22:00:00.999936","ARG_OF_PERICENTER":"54.3115","BSTAR":"-0.00106720000000","FILE":"3231910","MEAN_MOTION_DOT":"-0.00016135","LAUNCH_DATE":"2021-03-24","PERIAPSIS":"546.232","RCS_SIZE":"LARGE","CLASSIFICATION_TYPE":"U","APOAPSIS":"548.295","MEAN_MOTION":"15.06383650","ECCENTRICITY":"0.00014890"},{"REF_FRAME":"TEME","MEAN_MOTION_DDOT":"0.0000000000000","INCLINATION":"53.0569","OBJECT_TYPE":"PAYLOAD","SEMIMAJOR_AXIS":"6925.387","GP_ID":"191037818","TLE_LINE2":"2 47993  53.0569  86.5202 0001314  93.5490 266.5649 15.06387521 40431","COUNTRY_CODE":"US","EPHEMERIS_TYPE":"0","OBJECT_NAME":"STARLINK-2273","PERIOD":"95.593","TIME_SYSTEM":"UTC","MEAN_ELEMENT_THEORY":"SGP4","MEAN_MOTION":"15.06387521","ECCENTRICITY":"0.00013140","FILE":"3231910","BSTAR":"0.00008018800000","LAUNCH_DATE":"2021-03-24","MEAN_MOTION_DOT":"0.00000913","PERIAPSIS":"546.342","RCS_SIZE":"LARGE","APOAPSIS":"548.162","CLASSIFICATION_TYPE":"U","TLE_LINE1":"1 47993U 21024S   21337.63241879  .00000913  00000-0  80188-4 0  9999","REV_AT_EPOCH":"4043","DECAY_DATE":null,"EPOCH":"2021-12-03T15:10:40.983456","RA_OF_ASC_NODE":"86.5202","ARG_OF_PERICENTER":"93.5490","NORAD_CAT_ID":"47993","MEAN_ANOMALY":"266.5649","SITE":"AFETR","OBJECT_ID":"2021-024S","CENTER_NAME":"EARTH","ELEMENT_SET_NO":"999"},{"BSTAR":"0.00006112200000","FILE":"3231910","APOAPSIS":"548.156","CLASSIFICATION_TYPE":"U","LAUNCH_DATE":"2021-03-24","MEAN_MOTION_DOT":"0.00000629","PERIAPSIS":"546.325","RCS_SIZE":"LARGE","MEAN_MOTION":"15.06391088","ECCENTRICITY":"0.00013220","OBJECT_ID":"2021-024T","NORAD_CAT_ID":"47994","MEAN_ANOMALY":"284.6134","SITE":"AFETR","ELEMENT_SET_NO":"999","CENTER_NAME":"EARTH","REV_AT_EPOCH":"4019","DECAY_DATE":null,"TLE_LINE1":"1 47994U 21024T   21337.83560456  .00000629  00000-0  61122-4 0  9998","EPOCH":"2021-12-03T20:03:16.233984","RA_OF_ASC_NODE":"100.6022","ARG_OF_PERICENTER":"75.5002","OBJECT_TYPE":"PAYLOAD","INCLINATION":"53.0560","SEMIMAJOR_AXIS":"6925.376","MEAN_MOTION_DDOT":"0.0000000000000","REF_FRAME":"TEME","PERIOD":"95.593","TIME_SYSTEM":"UTC","MEAN_ELEMENT_THEORY":"SGP4","TLE_LINE2":"2 47994  53.0560 100.6022 0001322  75.5002 284.6134 15.06391088 40195","GP_ID":"191038568","EPHEMERIS_TYPE":"0","OBJECT_NAME":"STARLINK-2290","COUNTRY_CODE":"US"},{"REF_FRAME":"TEME","MEAN_MOTION_DDOT":"0.0000000000000","INCLINATION":"53.0601","OBJECT_TYPE":"PAYLOAD","SEMIMAJOR_AXIS":"6925.321","GP_ID":"191010865","TLE_LINE2":"2 47995  53.0601  66.8802 0001571  68.7192 291.3964 15.06408911 40652","COUNTRY_CODE":"US","OBJECT_NAME":"STARLINK-2309","EPHEMERIS_TYPE":"0","PERIOD":"95.592","TIME_SYSTEM":"UTC","MEAN_ELEMENT_THEORY":"SGP4","MEAN_MOTION":"15.06408911","ECCENTRICITY":"0.00015710","BSTAR":"0.00002181900000","FILE":"3231740","RCS_SIZE":"LARGE","LAUNCH_DATE":"2021-03-24","PERIAPSIS":"546.098","MEAN_MOTION_DOT":"0.00000044","CLASSIFICATION_TYPE":"U","APOAPSIS":"548.274","TLE_LINE1":"1 47995U 21024U   21337.54852845  .00000044  00000-0  21819-4 0  9993","DECAY_DATE":null,"REV_AT_EPOCH":"4065","ARG_OF_PERICENTER":"68.7192","RA_OF_ASC_NODE":"66.8802","EPOCH":"2021-12-03T13:09:52.858080","SITE":"AFETR","NORAD_CAT_ID":"47995","MEAN_ANOMALY":"291.3964","OBJECT_ID":"2021-024U","CENTER_NAME":"EARTH","ELEMENT_SET_NO":"999"},{"SEMIMAJOR_AXIS":"6848.512","OBJECT_TYPE":"PAYLOAD","INCLINATION":"53.0440","MEAN_MOTION_DDOT":"0.0000000000000","REF_FRAME":"TEME","MEAN_ELEMENT_THEORY":"SGP4","PERIOD":"94.006","TIME_SYSTEM":"UTC","EPHEMERIS_TYPE":"0","OBJECT_NAME":"STARLINK-2260","COUNTRY_CODE":"US","TLE_LINE2":"2 47996  53.0440  25.8018 0002158 349.8898 200.4269 15.31822473  3644","GP_ID":"191039570","APOAPSIS":"471.855","CLASSIFICATION_TYPE":"U","PERIAPSIS":"468.899","LAUNCH_DATE":"2021-03-24","MEAN_MOTION_DOT":"0.00011156","RCS_SIZE":"LARGE","FILE":"3231910","BSTAR":"0.00036929000000","ECCENTRICITY":"0.00021580","MEAN_MOTION":"15.31822473","ELEMENT_SET_NO":"999","CENTER_NAME":"EARTH","OBJECT_ID":"2021-024V","NORAD_CAT_ID":"47996","MEAN_ANOMALY":"200.4269","SITE":"AFETR","RA_OF_ASC_NODE":"25.8018","EPOCH":"2021-12-03T22:00:00.999936","ARG_OF_PERICENTER":"349.8898","REV_AT_EPOCH":"364","DECAY_DATE":null,"TLE_LINE1":"1 47996U 21024V   21337.91667824  .00011156  00000-0  36929-3 0  9999"},{"CENTER_NAME":"EARTH","ELEMENT_SET_NO":"999","MEAN_ANOMALY":"260.9548","NORAD_CAT_ID":"47997","SITE":"AFETR","OBJECT_ID":"2021-024W","EPOCH":"2021-12-03T16:25:38.931168","RA_OF_ASC_NODE":"101.2914","ARG_OF_PERICENTER":"99.1630","TLE_LINE1":"1 47997U 21024W   21337.68447837 -.00000128  00000-0  10339-4 0  9990","REV_AT_EPOCH":"4023","DECAY_DATE":null,"LAUNCH_DATE":"2021-03-24","MEAN_MOTION_DOT":"-0.00000128","PERIAPSIS":"546.066","RCS_SIZE":"LARGE","CLASSIFICATION_TYPE":"U","APOAPSIS":"548.374","BSTAR":"0.00001033900000","FILE":"3231910","ECCENTRICITY":"0.00016670","MEAN_MOTION":"15.06397895","MEAN_ELEMENT_THEORY":"SGP4","PERIOD":"95.592","TIME_SYSTEM":"UTC","COUNTRY_CODE":"US","EPHEMERIS_TYPE":"0","OBJECT_NAME":"STARLINK-2266","GP_ID":"191038318","TLE_LINE2":"2 47997  53.0572 101.2914 0001667  99.1630 260.9548 15.06397895 40232","SEMIMAJOR_AXIS":"6925.355","INCLINATION":"53.0572","OBJECT_TYPE":"PAYLOAD","REF_FRAME":"TEME","MEAN_MOTION_DDOT":"0.0000000000000"},{"DECAY_DATE":null,"REV_AT_EPOCH":"4052","TLE_LINE1":"1 47998U 21024X   21337.66925071  .00000592  00000-0  58628-4 0  9997","ARG_OF_PERICENTER":"77.1625","EPOCH":"2021-12-03T16:03:43.261344","RA_OF_ASC_NODE":"76.3475","OBJECT_ID":"2021-024X","SITE":"AFETR","MEAN_ANOMALY":"282.9506","NORAD_CAT_ID":"47998","ELEMENT_SET_NO":"999","CENTER_NAME":"EARTH","MEAN_MOTION":"15.06399477","ECCENTRICITY":"0.00012740","BSTAR":"0.00005862800000","FILE":"3231910","CLASSIFICATION_TYPE":"U","APOAPSIS":"548.097","RCS_SIZE":"LARGE","MEAN_MOTION_DOT":"0.00000592","LAUNCH_DATE":"2021-03-24","PERIAPSIS":"546.333","TLE_LINE2":"2 47998  53.0543  76.3475 0001274  77.1625 282.9506 15.06399477 40527","GP_ID":"191038069","OBJECT_NAME":"STARLINK-2296","EPHEMERIS_TYPE":"0","COUNTRY_CODE":"US","PERIOD":"95.592","TIME_SYSTEM":"UTC","MEAN_ELEMENT_THEORY":"SGP4","MEAN_MOTION_DDOT":"0.0000000000000","REF_FRAME":"TEME","INCLINATION":"53.0543","OBJECT_TYPE":"PAYLOAD","SEMIMAJOR_AXIS":"6925.350"},{"MEAN_MOTION_DDOT":"0.0000000000000","REF_FRAME":"TEME","SEMIMAJOR_AXIS":"6925.442","INCLINATION":"53.0562","OBJECT_TYPE":"PAYLOAD","OBJECT_NAME":"STARLINK-2218","EPHEMERIS_TYPE":"0","COUNTRY_CODE":"US","TLE_LINE2":"2 47999  53.0562  44.8602 0001695  51.9269  87.9297 15.06369522 40520","GP_ID":"191016515","MEAN_ELEMENT_THEORY":"SGP4","PERIOD":"95.594","TIME_SYSTEM":"UTC","ECCENTRICITY":"0.00016950","MEAN_MOTION":"15.06369522","APOAPSIS":"548.481","CLASSIFICATION_TYPE":"U","RCS_SIZE":"LARGE","LAUNCH_DATE":"2021-03-24","MEAN_MOTION_DOT":"0.00027280","PERIAPSIS":"546.133","FILE":"3231896","BSTAR":"0.00184470000000","ARG_OF_PERICENTER":"51.9269","EPOCH":"2021-12-04T00:00:02.000160","RA_OF_ASC_NODE":"44.8602","DECAY_DATE":null,"REV_AT_EPOCH":"4052","TLE_LINE1":"1 47999U 21024Y   21338.00002315  .00027280  00000-0  18447-2 0  9990","ELEMENT_SET_NO":"999","CENTER_NAME":"EARTH","OBJECT_ID":"2021-024Y","SITE":"AFETR","MEAN_ANOMALY":"87.9297","NORAD_CAT_ID":"47999"},{"ARG_OF_PERICENTER":"60.4853","EPOCH":"2021-12-03T22:00:00.999936","RA_OF_ASC_NODE":"30.2364","DECAY_DATE":null,"REV_AT_EPOCH":"363","TLE_LINE1":"1 48000U 21024Z   21337.91667824 -.00691650  00000-0 -48649-1 0  9991","ELEMENT_SET_NO":"999","CENTER_NAME":"EARTH","OBJECT_ID":"2021-024Z","SITE":"AFETR","MEAN_ANOMALY":"108.6434","NORAD_CAT_ID":"48000","ECCENTRICITY":"0.00015510","MEAN_MOTION":"15.07235075","CLASSIFICATION_TYPE":"U","APOAPSIS":"545.729","RCS_SIZE":"LARGE","PERIAPSIS":"543.582","LAUNCH_DATE":"2021-03-24","MEAN_MOTION_DOT":"-0.00691650","BSTAR":"-0.04864900000000","FILE":"3231910","OBJECT_NAME":"STARLINK-2270","EPHEMERIS_TYPE":"0","COUNTRY_CODE":"US","TLE_LINE2":"2 48000  53.0471  30.2364 0001551  60.4853 108.6434 15.07235075  3633","GP_ID":"191039071","MEAN_ELEMENT_THEORY":"SGP4","PERIOD":"95.539","TIME_SYSTEM":"UTC","MEAN_MOTION_DDOT":"0.0000000000000","REF_FRAME":"TEME","SEMIMAJOR_AXIS":"6922.790","INCLINATION":"53.0471","OBJECT_TYPE":"PAYLOAD"},{"SEMIMAJOR_AXIS":"6925.367","INCLINATION":"53.0561","OBJECT_TYPE":"PAYLOAD","MEAN_MOTION_DDOT":"0.0000000000000","REF_FRAME":"TEME","MEAN_ELEMENT_THEORY":"SGP4","PERIOD":"95.593","TIME_SYSTEM":"UTC","EPHEMERIS_TYPE":"0","OBJECT_NAME":"STARLINK-2265","COUNTRY_CODE":"US","TLE_LINE2":"2 48002  53.0561  50.2306 0001310  64.1728  15.9562 15.06393868  3599","GP_ID":"191037819","APOAPSIS":"548.140","CLASSIFICATION_TYPE":"U","LAUNCH_DATE":"2021-03-24","MEAN_MOTION_DOT":"-0.00021018","PERIAPSIS":"546.325","RCS_SIZE":"LARGE","BSTAR":"-0.00139650000000","FILE":"3231910","ECCENTRICITY":"0.00013100","MEAN_MOTION":"15.06393868","ELEMENT_SET_NO":"999","CENTER_NAME":"EARTH","OBJECT_ID":"2021-024AB","MEAN_ANOMALY":"15.9562","NORAD_CAT_ID":"48002","SITE":"AFETR","RA_OF_ASC_NODE":"50.2306","EPOCH":"2021-12-03T22:00:00.999936","ARG_OF_PERICENTER":"64.1728","REV_AT_EPOCH":"359","DECAY_DATE":null,"TLE_LINE1":"1 48002U 21024AB  21337.91667824 -.00021018  00000-0 -13965-2 0  9992"}];
